STARLINK-31181          
1 58746U 24005U   26068.37309309 -.00000998  00000+0 -26716-4 0  9990
2 58746  43.0097  69.3095 0002025 287.6500  72.4130 15.27582211122235
TRANSPORTER-12 OBJECT AZ
1 62656U 25009AZ  26068.71026235  .00016057  00000+0  54903-3 0  9991
2 62656  97.3981 151.9913 0000987  45.3581 314.7740 15.30349724 63792
